{
    "CCSDS_OMM_VERS": "3.0",
    "COMMENT": "GENERATED VIA SPACE-TRACK.ORG API",
    "CREATION_DATE": "2025-05-22T22:36:18",
    "ORIGINATOR": "18 SPCS",
    "OBJECT_NAME": "BEIDOU 13",
    "OBJECT_ID": "2012-018B",
    "CENTER_NAME": "EARTH",
    "REF_FRAME": "TEME",
    "TIME_SYSTEM": "UTC",
    "MEAN_ELEMENT_THEORY": "SGP4",
    "EPOCH": "2025-05-22T05:12:41.931936",
    "MEAN_MOTION": "1.86231952",
    "ECCENTRICITY": "0.00114080",
    "INCLINATION": "55.9916",
    "RA_OF_ASC_NODE": "317.2654",
    "ARG_OF_PERICENTER": "272.5469",
    "MEAN_ANOMALY": "87.3225",
    "EPHEMERIS_TYPE": "0",
    "CLASSIFICATION_TYPE": "U",
    "NORAD_CAT_ID": "38251",
    "ELEMENT_SET_NO": "999",
    "REV_AT_EPOCH": "8901",
    "BSTAR": "0.00000000000000",
    "MEAN_MOTION_DOT": "-0.00000050",
    "MEAN_MOTION_DDOT": "0.0000000000000",
    "SEMIMAJOR_AXIS": "27906.093",
    "PERIOD": "773.229",
    "APOAPSIS": "21559.794",
    "PERIAPSIS": "21496.123",
    "OBJECT_TYPE": "PAYLOAD",
    "RCS_SIZE": "LARGE",
    "COUNTRY_CODE": "PRC",
    "LAUNCH_DATE": "2012-04-29",
    "SITE": "XSC",
    "DECAY_DATE": null,
    "FILE": "4736314",
    "GP_ID": "288160585",
    "TLE_LINE0": "0 BEIDOU 13",
    "TLE_LINE1": "1 38251U 12018B   25142.21715199 -.00000050  00000-0  00000+0 0  9995",
    "TLE_LINE2": "2 38251  55.9916 317.2654 0011408 272.5469  87.3225  1.86231952 89015"
}